STARLINK-2356           
1 47896U 21021AN  26068.85878309  .00002640  00000+0  10125-3 0  9993
2 47896  53.1590 280.2025 0001108 103.5872 256.5252 15.30186543276046
2025-313BC              
1 67298U 25313BC  26068.18968176  .00075331  00000+0  26410-2 0  9997
2 67298  97.3985 144.8110 0008478 328.9209  31.1528 15.29126358  7890
