[{"OBJECT_NAME":"STARLINK-2356","OBJECT_ID":"2021-021AN","EPOCH":"2026-03-09T20:36:38.859840","MEAN_MOTION":15.30186543,"ECCENTRICITY":0.00011076,"INCLINATION":53.159,"RA_OF_ASC_NODE":280.2025,"ARG_OF_PERICENTER":103.5872,"MEAN_ANOMALY":256.5252,"EPHEMERIS_TYPE":0,"CLASSIFICATION_TYPE":"U","NORAD_CAT_ID":47896,"ELEMENT_SET_NO":999,"REV_AT_EPOCH":27604,"BSTAR":0.0001012518,"MEAN_MOTION_DOT":2.64e-5,"MEAN_MOTION_DDOT":0},{"OBJECT_NAME":"OBJECT BC","OBJECT_ID":"2025-313BC","EPOCH":"2026-03-09T04:33:08.504064","MEAN_MOTION":15.29126358,"ECCENTRICITY":0.00084789,"INCLINATION":97.3985,"RA_OF_ASC_NODE":144.811,"ARG_OF_PERICENTER":328.9209,"MEAN_ANOMALY":31.1528,"EPHEMERIS_TYPE":0,"CLASSIFICATION_TYPE":"U","NORAD_CAT_ID":67298,"ELEMENT_SET_NO":999,"REV_AT_EPOCH":789,"BSTAR":0.0026410397,"MEAN_MOTION_DOT":0.00075331,"MEAN_MOTION_DDOT":0}]
